#aV2010 12  7  0  0   .00000000      96 DD+AD WGS84 FIT  NGA
## 1613 172800.00000000   900.00000000 55537  .0000000000000
+   32     1  2  3  4  5  6  7  8  9 10 11 12 13 14 15 16 17
+         18 19 20 21 22 23 24 25 26 27 28 29 30 31 32  0  0
+          0  0  0  0  0  0  0  0  0  0  0  0  0  0  0  0  0
+          0  0  0  0  0  0  0  0  0  0  0  0  0  0  0  0  0
+          0  0  0  0  0  0  0  0  0  0  0  0  0  0  0  0  0
++         0  0  0  0  0  0  0  0  0  0  0  0  0  0  0  0  0
++         0  0  0  0  0  0  0  0  0  0  0  0  0  0  0  0  0
++         0  0  0  0  0  0  0  0  0  0  0  0  0  0  0  0  0
++         0  0  0  0  0  0  0  0  0  0  0  0  0  0  0  0  0
++         0  0  0  0  0  0  0  0  0  0  0  0  0  0  0  0  0
%c cc cc ccc ccc cccc cccc cccc cccc ccccc ccccc ccccc ccccc
%c cc cc ccc ccc cccc cccc cccc cccc ccccc ccccc ccccc ccccc
%f  0.0000000  0.000000000  0.00000000000  0.000000000000000
%f  0.0000000  0.000000000  0.00000000000  0.000000000000000
%i    0    0    0    0      0      0      0      0         0
%i    0    0    0    0      0      0      0      0         0
/*      NGA, ST. LOUIS,MO.                                  
/*   EPHEMERIS COMPUTED FROM  3 DAYS OF DATA                
/* CCCCCCCCCCCCCCCCCCCCCCCCCCCCCCCCCCCCCCCCCCCCCCCCCCCCCCCCC
/* CCCCCCCCCCCCCCCCCCCCCCCCCCCCCCCCCCCCCCCCCCCCCCCCCCCCCCCCC
*  2010 12  7  8 45   .00000000                                                 
P  1  15666.050631  -4013.279212  20977.638828   -189.042598                    
V  1  17111.724455  20708.941685  -8646.165610      -.034152                    
P  2 -19013.012740  13303.498013  12485.915999    307.108887                    
V  2 -16390.757605    163.732068 -25614.812151       .023939                    
P  3   9985.220530 -23420.921534   6543.089014    645.266920                    
V  3   2069.916080   9583.402087  29678.340948       .050941                    
P  4 -25638.705027   7012.253116   2853.743636    238.557577                    
V  4  -4370.147180  -2437.832168 -30739.616117       .097739                    
P  5  -5733.241912  15618.435694  20666.624066    -79.038791                    
V  5 -17986.134206 -19230.989947   9635.755549      -.059691                    
P  6  13899.337206 -19978.285737  10571.207490    398.030554                    
V  6   -559.397174  13688.331856  27200.844873      -.104447                    
P  7 -20392.647239  -7038.319039  15631.003479       .107309                    
V  7  19115.104107  -5147.309976  22428.402207       .004256                    
P  8 -26252.694368   -739.663249   5624.167315      7.011489                    
V  8   6814.251467  -1993.452550  31090.320164       .000266                    
P  9    964.573331  15079.720358 -22386.194613     47.159886                    
V  9 -26477.308216   5567.994004   2688.465735       .024776                    
P 10 -17151.572022   1746.864121  20098.240193    -59.676872                    
V 10 -15758.417154 -20577.220009 -11183.712991      -.009660                    
P 11  -5820.341226 -15911.880749 -20743.976275   -109.470068                    
V 11  23797.015592 -10556.886318   1805.987521      -.028628                    
P 12   8875.781426  22425.713613 -11259.199421    -47.083487                    
V 12 -10706.317186  -9649.324527 -27423.217121       .034719                    
P 13  -8878.500896 -13727.880539  20787.703578    289.846047                    
V 13  11223.235306 -24163.520090 -11137.477429      -.011624                    
P 14  16481.422739  -5413.635639 -19910.595806    113.544435                    
V 14  -8733.319019  24099.985708 -13802.280111       .032007                    
P 15  -2534.087713  25233.600084  -7620.729680   -174.757038                    
V 15  -5910.111733   8327.583663  29613.187661       .042818                    
P 16   9990.678552 -11262.613709  21894.486875   -132.349787                    
V 16  17737.890738  21283.517231   3131.876248      -.031513                    
P 17 -16432.618001   2956.833078 -20492.063511    179.147727                    
V 17   8298.269841 -25012.848112 -10427.290588       .008586                    
P 18  20167.574134  15878.631685  -7240.415149    108.890053                    
V 18   3665.696387   9339.845350  29115.064167       .021531                    
P 19   6711.872824 -24908.244344  -5538.542270    -89.816824                    
V 19   5695.853062  -5257.964027  30844.462801      -.034494                    
P 20 -11907.442374 -22205.246090  -8652.096555     49.191211                    
V 20   9723.807566   5730.757388 -28486.217429      -.001513                    
P 21  21967.010269   6750.418650  14194.804638   -107.637273                    
V 21 -16565.498021   5309.541559  23108.060121      -.026729                    
P 22  20081.255890   5143.556323 -16487.942803    157.477916                    
V 22  11763.339934  17912.062511  19621.115211      -.007009                    
P 23  -2469.115771 -22159.218906  14170.445418    339.489059                    
V 23   8219.247294 -16305.750481 -24387.107400      -.021166                    
P 24    647.036524 -15604.688576 -21421.632562    345.536616                    
V 24  27183.348491  -3272.453943   3462.326305       .034440                    
P 25  18085.358872  19428.868762    830.949771    -56.281002                    
V 25  -1361.239170   2652.659703 -31768.213187      -.023295                    
P 26 -11878.911322  23274.533672   2653.163857    -66.910772                    
V 26   -507.503631  -4686.115981  32416.589495      -.084623                    
P 27  -6541.609658  15350.221834 -19925.918855    214.718587                    
V 27 -26351.108415   5255.939254  12520.772509       .036500                    
P 28 -20058.211041  -9423.883295 -14349.764398      8.186647                    
V 28 -10438.367179 -15919.818260  23936.565270       .018997                    
P 29   8672.029493  15709.090510  19670.643239    168.805285                    
V 29 -10041.240027  22707.846577 -13724.858605       .026034                    
P 30  20249.916008   5062.946221  16035.053020    302.742424                    
V 30  13019.075802  16758.494106 -21168.861844       .032740                    
P 31  24601.078595  -8571.056579   5877.447085     16.181513                    
V 31   7377.449265    662.037476 -30864.496176       .038855                    
P 32  -3550.391233 -22075.713733 -14311.970781   -147.882938                    
V 32  12542.710978  13843.603413 -23562.000682      -.082806                    
EOF
